{
  "type": "FeatureCollection",
  "features": [
    {
      "type": "Feature",
      "properties": {
        "norad_id": 29922,
        "name": "FENGYUN 1C DEB",
        "group": "fengyun-1c-debris",
        "lat": 49.85021038156607,
        "lon": -117.42968379461206,
        "alt_km": 947.5710213326556,
        "timestamp": "2025-12-20T03:42:47.665405+00:00",
        "meta_object_name": "FENGYUN 1C DEB",
        "meta_object_id": "1999-025HU",
        "meta_epoch": "2025-12-19T09:55:48.303264",
        "meta_mean_motion": 13.98582167,
        "meta_eccentricity": 0.0092798,
        "meta_inclination": 99.1344,
        "meta_ra_of_asc_node": 50.8372,
        "meta_arg_of_pericenter": 348.562,
        "meta_mean_anomaly": 11.3434,
        "meta_ephemeris_type": 0,
        "meta_classification_type": "U",
        "meta_norad_cat_id": 29922,
        "meta_element_set_no": 999,
        "meta_rev_at_epoch": 96534,
        "meta_bstar": 3.7448e-05,
        "meta_mean_motion_dot": 1.1e-07,
        "meta_mean_motion_ddot": 0,
        "tle_line1": "1 29922U 99025HU  25353.41375351  .00000011  00000+0  37448-4 0  9997",
        "tle_line2": "2 29922  99.1344  50.8372 0092798 348.5620  11.3434 13.98582167965347"
      },
      "geometry": {
        "type": "Point",
        "coordinates": [
          -117.42968379461206,
          49.85021038156607
        ]
      }
    },
    {
      "type": "Feature",
      "properties": {
        "norad_id": 29923,
        "name": "FENGYUN 1C DEB",
        "group": "fengyun-1c-debris",
        "lat": 17.436915569922693,
        "lon": -0.5147154256055049,
        "alt_km": 854.836860938758,
        "timestamp": "2025-12-20T03:42:47.665415+00:00",
        "meta_object_name": "FENGYUN 1C DEB",
        "meta_object_id": "1999-025HV",
        "meta_epoch": "2025-12-19T00:45:32.113152",
        "meta_mean_motion": 14.13903569,
        "meta_eccentricity": 0.00178561,
        "meta_inclination": 98.6877,
        "meta_ra_of_asc_node": 1.1465,
        "meta_arg_of_pericenter": 151.6923,
        "meta_mean_anomaly": 272.7974,
        "meta_ephemeris_type": 0,
        "meta_classification_type": "U",
        "meta_norad_cat_id": 29923,
        "meta_element_set_no": 999,
        "meta_rev_at_epoch": 97364,
        "meta_bstar": 0.00038540128,
        "meta_mean_motion_dot": 6.89e-06,
        "meta_mean_motion_ddot": 0,
        "tle_line1": "1 29923U 99025HV  25353.03162168  .00000689  00000+0  38540-3 0  9990",
        "tle_line2": "2 29923  98.6877   1.1465 0017856 151.6923 272.7974 14.13903569973641"
      },
      "geometry": {
        "type": "Point",
        "coordinates": [
          -0.5147154256055049,
          17.436915569922693
        ]
      }
    },
    {
      "type": "Feature",
      "properties": {
        "norad_id": 29924,
        "name": "FENGYUN 1C DEB",
        "group": "fengyun-1c-debris",
        "lat": -38.1027044715725,
        "lon": 179.95823005588477,
        "alt_km": 851.5697982765932,
        "timestamp": "2025-12-20T03:42:47.665428+00:00",
        "meta_object_name": "FENGYUN 1C DEB",
        "meta_object_id": "1999-025HW",
        "meta_epoch": "2025-12-18T12:12:29.462976",
        "meta_mean_motion": 14.08891637,
        "meta_eccentricity": 0.00259991,
        "meta_inclination": 98.7339,
        "meta_ra_of_asc_node": 5.2871,
        "meta_arg_of_pericenter": 240.7664,
        "meta_mean_anomaly": 273.7569,
        "meta_ephemeris_type": 0,
        "meta_classification_type": "U",
        "meta_norad_cat_id": 29924,
        "meta_element_set_no": 999,
        "meta_rev_at_epoch": 97289,
        "meta_bstar": 0.00012414451,
        "meta_mean_motion_dot": 1.72e-06,
        "meta_mean_motion_ddot": 0,
        "tle_line1": "1 29924U 99025HW  25352.50867434  .00000172  00000+0  12414-3 0  9999",
        "tle_line2": "2 29924  98.7339   5.2871 0025999 240.7664 273.7569 14.08891637972894"
      },
      "geometry": {
        "type": "Point",
        "coordinates": [
          179.95823005588477,
          -38.1027044715725
        ]
      }
    },
    {
      "type": "Feature",
      "properties": {
        "norad_id": 29926,
        "name": "FENGYUN 1C DEB",
        "group": "fengyun-1c-debris",
        "lat": 22.205465315573324,
        "lon": -20.662940183701807,
        "alt_km": 820.4312917989719,
        "timestamp": "2025-12-20T03:42:47.665441+00:00",
        "meta_object_name": "FENGYUN 1C DEB",
        "meta_object_id": "1999-025HY",
        "meta_epoch": "2025-12-19T18:23:12.520032",
        "meta_mean_motion": 14.33410811,
        "meta_eccentricity": 0.0247967,
        "meta_inclination": 98.2839,
        "meta_ra_of_asc_node": 342.3742,
        "meta_arg_of_pericenter": 279.1837,
        "meta_mean_anomaly": 256.4792,
        "meta_ephemeris_type": 0,
        "meta_classification_type": "U",
        "meta_norad_cat_id": 29926,
        "meta_element_set_no": 999,
        "meta_rev_at_epoch": 98681,
        "meta_bstar": 0.00022751,
        "meta_mean_motion_dot": 8.32e-06,
        "meta_mean_motion_ddot": 0,
        "tle_line1": "1 29926U 99025HY  25353.76611713  .00000832  00000+0  22751-3 0  9995",
        "tle_line2": "2 29926  98.2839 342.3742 0247967 279.1837 256.4792 14.33410811986819"
      },
      "geometry": {
        "type": "Point",
        "coordinates": [
          -20.662940183701807,
          22.205465315573324
        ]
      }
    },
    {
      "type": "Feature",
      "properties": {
        "norad_id": 29927,
        "name": "FENGYUN 1C DEB",
        "group": "fengyun-1c-debris",
        "lat": 9.898528803540536,
        "lon": -159.40132479778148,
        "alt_km": 635.3126579770978,
        "timestamp": "2025-12-20T03:42:47.665450+00:00",
        "meta_object_name": "FENGYUN 1C DEB",
        "meta_object_id": "1999-025HZ",
        "meta_epoch": "2025-12-19T01:10:15.858624",
        "meta_mean_motion": 14.74787968,
        "meta_eccentricity": 0.00179494,
        "meta_inclination": 99.0831,
        "meta_ra_of_asc_node": 17.7597,
        "meta_arg_of_pericenter": 191.01,
        "meta_mean_anomaly": 230.6783,
        "meta_ephemeris_type": 0,
        "meta_classification_type": "U",
        "meta_norad_cat_id": 29927,
        "meta_element_set_no": 999,
        "meta_rev_at_epoch": 98740,
        "meta_bstar": 0.0020990049,
        "meta_mean_motion_dot": 0.00014051,
        "meta_mean_motion_ddot": 0,
        "tle_line1": "1 29927U 99025HZ  25353.04879466  .00014051  00000+0  20990-2 0  9998",
        "tle_line2": "2 29927  99.0831  17.7597 0017949 191.0100 230.6783 14.74787968987407"
      },
      "geometry": {
        "type": "Point",
        "coordinates": [
          -159.40132479778148,
          9.898528803540536
        ]
      }
    },
    {
      "type": "Feature",
      "properties": {
        "norad_id": 29928,
        "name": "FENGYUN 1C DEB",
        "group": "fengyun-1c-debris",
        "lat": 45.9016269681946,
        "lon": -151.34058855542116,
        "alt_km": 862.700687918813,
        "timestamp": "2025-12-20T03:42:47.665461+00:00",
        "meta_object_name": "FENGYUN 1C DEB",
        "meta_object_id": "1999-025JA",
        "meta_epoch": "2025-12-19T01:24:17.581248",
        "meta_mean_motion": 13.88094891,
        "meta_eccentricity": 0.01432201,
        "meta_inclination": 99.5838,
        "meta_ra_of_asc_node": 17.4931,
        "meta_arg_of_pericenter": 86.3233,
        "meta_mean_anomaly": 330.7501,
        "meta_ephemeris_type": 0,
        "meta_classification_type": "U",
        "meta_norad_cat_id": 29928,
        "meta_element_set_no": 999,
        "meta_rev_at_epoch": 95579,
        "meta_bstar": 0.00054028306,
        "meta_mean_motion_dot": 6.53e-06,
        "meta_mean_motion_ddot": 0,
        "tle_line1": "1 29928U 99025JA  25353.05853682  .00000653  00000+0  54028-3 0  9995",
        "tle_line2": "2 29928  99.5838  17.4931 0143220  86.3233 330.7501 13.88094891955791"
      },
      "geometry": {
        "type": "Point",
        "coordinates": [
          -151.34058855542116,
          45.9016269681946
        ]
      }
    },
    {
      "type": "Feature",
      "properties": {
        "norad_id": 29929,
        "name": "FENGYUN 1C DEB",
        "group": "fengyun-1c-debris",
        "lat": -11.607774346220326,
        "lon": -85.2192596133453,
        "alt_km": 986.4035143378342,
        "timestamp": "2025-12-20T03:42:47.665471+00:00",
        "meta_object_name": "FENGYUN 1C DEB",
        "meta_object_id": "1999-025JB",
        "meta_epoch": "2025-12-19T17:37:53.621760",
        "meta_mean_motion": 14.01379686,
        "meta_eccentricity": 0.0131539,
        "meta_inclination": 98.6244,
        "meta_ra_of_asc_node": 272.5972,
        "meta_arg_of_pericenter": 156.5885,
        "meta_mean_anomaly": 234.0629,
        "meta_ephemeris_type": 0,
        "meta_classification_type": "U",
        "meta_norad_cat_id": 29929,
        "meta_element_set_no": 999,
        "meta_rev_at_epoch": 96054,
        "meta_bstar": 0.00070237,
        "meta_mean_motion_dot": 1.102e-05,
        "meta_mean_motion_ddot": 0,
        "tle_line1": "1 29929U 99025JB  25353.73464840  .00001102  00000+0  70237-3 0  9995",
        "tle_line2": "2 29929  98.6244 272.5972 0131539 156.5885 234.0629 14.01379686960545"
      },
      "geometry": {
        "type": "Point",
        "coordinates": [
          -85.2192596133453,
          -11.607774346220326
        ]
      }
    }
  ]
}